satname,norad_id,inclination_deg,eccentricity,mean_motion_rev_per_day,perigee_km,apogee_km,l1,l2
STARLINK-1404,45686,53.1586,0.0004875,15.40801724,440.41621065059826,447.0675425552863,1 45686U 20035AF  26124.25114143  .00033108  00000+0  80208-3 0  9990,2 45686  53.1586 149.1917 0004875  46.0176 314.1231 15.40801724327514
STARLINK-1413,45689,53.1571,0.0003148,15.32164472,467.20018742147295,471.51136887459506,1 45689U 20035AJ  26124.33408373  .00034197  00000+0  10927-2 0  9992,2 45689  53.1571 150.9374 0003148  49.2753 310.8522 15.32164472327414
STARLINK-1417,45693,53.0501,0.0005798,15.15216119,516.3227924027688,524.3222460612697,1 45693U 20035AN  26124.24924307  .00025708  00000+0  13633-2 0  9992,2 45693  53.0501 161.9486 0005798  33.3598 326.7759 15.15216119327315
STARLINK-1420,45695,53.0455,0.0006886,15.64677046,369.5180931417872,378.81736721618927,1 45695U 20035AQ  26124.37463408  .00050000  00000+0  50815-3 0  9995,2 45695  53.0455 111.4428 0006886  28.5375 331.6015 15.64677046328044
STARLINK-1422,45696,53.1564,0.0003367,15.32344053,466.5154085437043,471.12614991223654,1 45696U 20035AR  26124.40369174  .00039892  00000+0  12646-2 0  9990,2 45696  53.1564 150.5817 0003367  42.2930 317.8330 15.32344053327504
STARLINK-1351,45697,53.0449,0.0007361,15.62105852,376.5993111047919,386.55095931024425,1 45697U 20035AS  26124.67670968  .00113981  00000+0  12634-2 0  9995,2 45697  53.0449 109.9580 0007361  31.3298 328.8152 15.62105852328099
STARLINK-1400,45700,53.0441,0.000613,15.59962456,383.61813803133464,391.91313466349584,1 45700U 20035AV  26124.83878491  .00063835  00000+0  77612-3 0  9999,2 45700  53.0441 111.2282 0006130   0.0888   0.0124 15.59962456328086
STARLINK-1403,45701,53.1535,0.0002885,15.31227021,470.173976044287,474.12659180711216,1 45701U 20035AW  26124.32809389  .00041811  00000+0  13715-2 0  9997,2 45701  53.1535 138.2279 0002885  48.6714 311.4535 15.31227021327666
STARLINK-1407,45703,53.0304,0.0002228,15.69077952,360.0344378167356,363.0376361220078,1 45703U 20035AY  26124.06361294  .00063800  00000+0  54124-3 0  9990,2 45703  53.0304  43.8763 0002228 337.0175  23.0741 15.69077952328963
STARLINK-1411,45706,53.0366,0.0003975,15.76541347,337.5781150323537,342.919231642657,1 45706U 20035BB  26124.91668980  .00125098  00000+0  76307-3 0  9994,2 45706  53.0366  63.8887 0003975  84.1432 104.2946 15.76541347  5928
STARLINK-1423,45710,53.0435,0.0007801,15.65637414,366.1408694047168,376.6715066867064,1 45710U 20035BF  26124.68117728  .00054867  00000+0  53572-3 0  9996,2 45710  53.0435 109.6198 0007801   3.0732 357.0329 15.65637414328086
STARLINK-1433,45711,53.0434,0.0007608,15.65256218,367.3660945828833,377.6378668559455,1 45711U 20035BG  26124.84901762  .00052642  00000+0  52226-3 0  9998,2 45711  53.0434 107.2900 0007608   9.9439 350.1725 15.65256218328134
STARLINK-1434,45712,53.0508,0.0003905,15.31701165,468.062037312965,473.4110075339768,1 45712U 20035BH  26124.70511978  .00052542  00000+0  16926-2 0  9995,2 45712  53.0508 119.5407 0003905   5.6395 354.4648 15.31701165327965
STARLINK-1465,45731,53.0473,0.0002766,15.59019286,388.62196587012204,392.36637263295233,1 45731U 20038B   26124.77249411  .00092669  00000+0  11614-2 0  9999,2 45731  53.0473 312.2210 0002766 160.7186 199.3931 15.59019286325107
STARLINK-1471,45735,53.0451,0.0002393,15.51937603,409.4446176432293,412.69393176630456,1 45735U 20038F   26124.79137784  .00027972  00000+0  46397-3 0  9996,2 45735  53.0451 232.6129 0002393  48.5350 311.5864 15.51937603326235
STARLINK-1480,45741,53.0499,0.0002972,15.60435617,384.38742628427553,388.40826579676286,1 45741U 20038M   26124.76341635  .00098309  00000+0  11663-2 0  9991,2 45741  53.0499 306.0271 0002972 253.7501 106.3184 15.60435617325208
STARLINK-1500,45744,53.0363,0.0002985,15.37678378,450.9374387664611,455.01561354157457,1 45744U 20038Q   26124.16945856  .00022650  00000+0  61186-3 0  9995,2 45744  53.0363 291.9073 0002985  87.4459 272.6885 15.37678378325348
STARLINK-1504,45746,53.0212,0.0002233,15.56969618,394.92046796716204,397.9459910316564,1 45746U 20038S   26124.72776303  .00032816  00000+0  45183-3 0  9992,2 45746  53.0212 231.0428 0002233  17.3713 342.7373 15.56969618326234
STARLINK-1506,45747,53.0777,0.000412,15.27792054,479.5876564260798,485.2407506177815,1 45747U 20038T   26124.75269228  .00008033  00000+0  30443-3 0  9996,2 45747  53.0777 302.7292 0004120  81.3405 278.8060 15.27792054325251
STARLINK-1464,45751,53.0485,0.0001021,15.51159796,412.6452426403757,414.0320619685763,1 45751U 20038X   26124.82401196  .00089561  00000+0  14985-2 0  9998,2 45751  53.0485 296.3215 0001021 225.1089 134.9837 15.51159796325349
STARLINK-1477,45754,53.0505,0.0002475,15.17252401,512.4430833957194,515.8547649281791,1 45754U 20038AA  26124.80849800  .00034075  00000+0  16989-2 0  9993,2 45754  53.0505 317.3128 0002475 142.9941 217.1224 15.17252401325049
STARLINK-1478,45755,53.0468,0.0001035,15.648117,373.0815383427671,374.47918523665794,1 45755U 20038AB  26124.17951533  .00051340  00000+0  51928-3 0  9998,2 45755  53.0468 287.6051 0001035 304.1954  55.8962 15.64811700325398
STARLINK-1493,45759,53.0491,0.0004443,15.59745532,385.3865714062222,391.3993099114923,1 45759U 20038AF  26124.81617478  .00104193  00000+0  12675-2 0  9990,2 45759  53.0491 293.1465 0004443 242.7764 117.2795 15.59745532325379
STARLINK-1494,45760,53.043,0.0005152,15.89308212,300.77851994012235,307.6640219024803,1 45760U 20038AG  26124.91668980  .00159528  00000+0  53087-3 0  9992,2 45760  53.0430 229.1566 0005152 321.5177 162.9284 15.89308212  6017
STARLINK-1502,45764,53.048,0.0005549,15.56237305,394.7979314121085,402.318707877851,1 45764U 20038AL  26124.85353786  .00097508  00000+0  13543-2 0  9995,2 45764  53.0480 295.8811 0005549 215.3754 144.6890 15.56237305325359
STARLINK-1470,45772,53.0437,0.0001823,15.32822773,466.14716998432596,468.6430509918109,1 45772U 20038AU  26124.70487950  .00053934  00000+0  16772-2 0  9991,2 45772  53.0437 273.3456 0001823 247.0648 113.0160 15.32822773325657
STARLINK-1482,45773,53.1596,0.0002217,15.34999519,459.40570401535297,462.4381427419794,1 45773U 20038AV  26124.76783764  .00054637  00000+0  15859-2 0  9996,2 45773  53.1596 289.6323 0002217 236.4141 123.6650 15.34999519325449
STARLINK-1496,45780,53.0478,0.0004583,15.57849224,390.77929599223717,396.9865294442352,1 45780U 20038BC  26124.69358913  .00079550  00000+0  10443-2 0  9995,2 45780  53.0478 267.8569 0004583 328.3885  31.6850 15.57849224325711
STARLINK-1513,45786,53.1596,0.0001224,15.31706391,469.8826438410988,471.5592442658026,1 45786U 20038BJ  26124.84181750  .00002596  00000+0  95382-4 0  9994,2 45786  53.1596 290.1209 0001224  86.4513 273.6628 15.31706391325448
STARLINK-1522,46027,53.0651,0.0001643,15.11738035,529.7642547103433,532.0345640744699,1 46027U 20055A   26124.66214100  .00048504  00000+0  28113-2 0  9993,2 46027  53.0651 233.7033 0001643 307.8766  52.2076 15.11738035317347
STARLINK-1523,46028,53.1612,0.0001234,15.3020422,474.35676719843104,476.04817137945156,1 46028U 20055B   26124.56233153  .00007493  00000+0  26481-3 0  9991,2 46028  53.1612 227.1815 0001234  78.1147 281.9993 15.30204220317454
STARLINK-1526,46029,53.1612,0.0001398,15.30194144,474.27445337182417,476.1906554992438,1 46029U 20055C   26124.55601161  .00007833  00000+0  27635-3 0  9999,2 46029  53.1612 227.2201 0001398  79.0335 281.0823 15.30194144317440
STARLINK-1555,46032,53.1602,0.0001646,15.30198609,474.0911602634842,476.3472851319966,1 46032U 20055F   26124.54021207  .00008222  00000+0  28943-3 0  9995,2 46032  53.1602 227.2743 0001646  74.9473 285.1710 15.30198609317447
STARLINK-1556,46033,53.1589,0.0001289,15.30195675,474.34458437383,476.11138186647804,1 46033U 20055G   26124.71930115  .00007352  00000+0  26014-3 0  9992,2 46033  53.1589 226.4587 0001289  89.4204 270.6944 15.30195675317443
STARLINK-1557,46034,53.158,0.000141,15.30201529,474.24418210665135,476.17682610280826,1 46034U 20055H   26124.91668980 -.00019828  00000+0 -65905-3 0  9998,2 46034  53.1580 225.5402 0001410  85.8430 264.7801 15.30201529  5804
STARLINK-1558,46035,53.1609,0.0001382,15.30188382,474.302620842569,476.196896942728,1 46035U 20055J   26124.53389899  .00010993  00000+0  38287-3 0  9991,2 46035  53.1609 227.3172 0001382  92.7217 267.3942 15.30188382317441
STARLINK-1560,46036,53.1584,0.0001143,15.30192875,474.45300289442366,476.0196840407398,1 46036U 20055K   26124.58551542  .00001622  00000+0  66904-4 0  9990,2 46036  53.1584 227.0867 0001143  79.5586 280.5543 15.30192875317456
STARLINK-1567,46038,53.0779,0.0004344,16.11057764,241.06652268265952,246.81978592071755,1 46038U 20055M   26124.73376789  .01631696  20118-2  16214-2 0  9990,2 46038  53.0779 210.1031 0004344 353.8683   6.2298 16.11057764317683
STARLINK-1569,46039,53.1598,0.0001407,15.30200812,474.2483786397179,476.1769112298016,1 46039U 20055N   26124.79830388  .00000680  00000+0  35078-4 0  9995,2 46039  53.1598 226.0802 0001407  90.6616 269.4546 15.30200812317475
STARLINK-1582,46043,53.159,0.0001333,15.31707212,469.80554427557126,471.63144915099474,1 46043U 20055S   26124.65334528  .00011371  00000+0  37754-3 0  9991,2 46043  53.1590 226.5266 0001333  92.6913 267.4241 15.31707212317456
STARLINK-1591,46045,53.1578,0.0001174,15.30203794,474.3991590395808,476.00832344562514,1 46045U 20055U   26124.70033542  .00012371  00000+0  42904-3 0  9995,2 46045  53.1578 226.5408 0001174  91.5964 268.5171 15.30203794317447
STARLINK-1524,46047,53.1597,0.0001038,15.31711776,469.9939820189529,471.41580159569185,1 46047U 20055W   26124.62266712 -.00005638  00000+0 -17000-3 0  9994,2 46047  53.1597 213.9642 0001038  59.1973 300.9130 15.31711776317631
STARLINK-1527,46048,53.1583,0.0001338,15.31709726,469.79462681640325,471.6273785419198,1 46048U 20055X   26124.91668980 -.00021223  00000+0 -67386-3 0  9990,2 46048  53.1583 212.5797 0001338  87.3945 120.5494 15.31709726  5914
